{
    "links": {
        "self": "http://www.neowsapp.com/rest/v1/neo/3600476?api_key=iIulBulltgU6a56xZRHN4H3l9WmuAYTsLGpBGhQ2"
    },
    "id": "3600476",
    "neo_reference_id": "3600476",
    "name": "(2012 EJ1)",
    "designation": "2012 EJ1",
    "nasa_jpl_url": "http://ssd.jpl.nasa.gov/sbdb.cgi?sstr=3600476",
    "absolute_magnitude_h": 25.0,
    "estimated_diameter": {
        "kilometers": {
            "estimated_diameter_min": 0.02658,
            "estimated_diameter_max": 0.0594346868
        },
        "meters": {
            "estimated_diameter_min": 26.58,
            "estimated_diameter_max": 59.4346868419
        },
        "miles": {
            "estimated_diameter_min": 0.0165160412,
            "estimated_diameter_max": 0.0369309908
        },
        "feet": {
            "estimated_diameter_min": 87.2047272,
            "estimated_diameter_max": 194.9956979785
        }
    },
    "is_potentially_hazardous_asteroid": false,
    "close_approach_data": [
        {
            "close_approach_date": "2012-03-10",
            "close_approach_date_full": "2012-Mar-10 17:40",
            "epoch_date_close_approach": 1331401200000,
            "relative_velocity": {
                "kilometers_per_second": "9.6703676078",
                "kilometers_per_hour": "34813.3233879032",
                "miles_per_hour": "21631.6453017779"
            },
            "miss_distance": {
                "astronomical": "0.0294293623",
                "lunar": "11.4480219347",
                "kilometers": "4402569.915538301",
                "miles": "2735630.0926625138"
            },
            "orbiting_body": "Earth"
        }
    ],
    "orbital_data": {
        "orbit_id": "5",
        "orbit_determination_date": "2017-04-06 08:50:40",
        "first_observation_date": "2012-03-01",
        "last_observation_date": "2012-03-04",
        "data_arc_in_days": 3,
        "observations_used": 16,
        "orbit_uncertainty": "9",
        "minimum_orbit_intersection": ".0186403",
        "jupiter_tisserand_invariant": "3.868",
        "epoch_osculation": "2455988.5",
        "eccentricity": ".491289541786161",
        "semi_major_axis": "1.830682219863456",
        "inclination": "6.769965826798098",
        "ascending_node_longitude": "158.5489326631879",
        "orbital_period": "904.7276685832716",
        "perihelion_distance": ".9312871909106667",
        "perihelion_argument": "46.0164192488729",
        "aphelion_distance": "2.730077248816245",
        "perihelion_time": "2456024.683606019140",
        "mean_anomaly": "345.6021887920282",
        "mean_motion": ".397909793743492",
        "equinox": "J2000",
        "orbit_class": {
            "orbit_class_type": "APO",
            "orbit_class_description": "Near-Earth asteroid orbits which cross the Earth’s orbit similar to that of 1862 Apollo",
            "orbit_class_range": "a (semi-major axis) > 1.0 AU; q (perihelion) < 1.017 AU"
        }
    },
    "is_sentry_object": false
}